{
  "type": "FeatureCollection",
  "features": [
    {
      "type": "Feature",
      "properties": {
        "norad_id": 63772,
        "name": "BIOMASS",
        "group": "resource",
        "lat": 81.89962993104481,
        "lon": 78.06659812801789,
        "alt_km": 660.6067333247411,
        "timestamp": "2025-12-04T10:51:49.764028+00:00",
        "meta_object_name": "BIOMASS",
        "meta_object_id": "2025-090A",
        "meta_epoch": "2025-12-04T02:16:34.934592",
        "meta_mean_motion": 14.67540474,
        "meta_eccentricity": 0.0001228,
        "meta_inclination": 98.0706,
        "meta_ra_of_asc_node": 163.2299,
        "meta_arg_of_pericenter": 80.4961,
        "meta_mean_anomaly": 279.6382,
        "meta_ephemeris_type": 0,
        "meta_classification_type": "U",
        "meta_norad_cat_id": 63772,
        "meta_element_set_no": 999,
        "meta_rev_at_epoch": 3207,
        "meta_bstar": 0.0004632,
        "meta_mean_motion_dot": 2.58e-05,
        "meta_mean_motion_ddot": 0,
        "tle_line1": "1 63772U 25090A   25338.09484878  .00002580  00000+0  46320-3 0  9992",
        "tle_line2": "2 63772  98.0706 163.2299 0001228  80.4961 279.6382 14.67540474 32071"
      },
      "geometry": {
        "type": "Point",
        "coordinates": [
          78.06659812801789,
          81.89962993104481
        ]
      }
    },
    {
      "type": "Feature",
      "properties": {
        "norad_id": 64694,
        "name": "GOSAT-GW (IBUKI GW)",
        "group": "resource",
        "lat": -60.78629270736032,
        "lon": -71.24360767435145,
        "alt_km": 676.6392823723327,
        "timestamp": "2025-12-04T10:51:49.764038+00:00",
        "meta_object_name": "GOSAT-GW (IBUKI GW)",
        "meta_object_id": "2025-141A",
        "meta_epoch": "2025-11-30T05:41:32.267328",
        "meta_mean_motion": 14.67567435,
        "meta_eccentricity": 0.00014369,
        "meta_inclination": 98.0401,
        "meta_ra_of_asc_node": 269.9775,
        "meta_arg_of_pericenter": 82.921,
        "meta_mean_anomaly": 277.2158,
        "meta_ephemeris_type": 0,
        "meta_classification_type": "U",
        "meta_norad_cat_id": 64694,
        "meta_element_set_no": 999,
        "meta_rev_at_epoch": 2266,
        "meta_bstar": 0.00019762357,
        "meta_mean_motion_dot": 1.074e-05,
        "meta_mean_motion_ddot": 0,
        "tle_line1": "1 64694U 25141A   25334.23717902  .00001074  00000+0  19762-3 0  9999",
        "tle_line2": "2 64694  98.0401 269.9775 0001436  82.9210 277.2158 14.67567435 22660"
      },
      "geometry": {
        "type": "Point",
        "coordinates": [
          -71.24360767435145,
          -60.78629270736032
        ]
      }
    },
    {
      "type": "Feature",
      "properties": {
        "norad_id": 64876,
        "name": "IONOSFERA-M 3",
        "group": "resource",
        "lat": -53.546252865839314,
        "lon": 108.76497325481381,
        "alt_km": 829.0902848833339,
        "timestamp": "2025-12-04T10:51:49.764049+00:00",
        "meta_object_name": "IONOSFERA-M 3",
        "meta_object_id": "2025-155A",
        "meta_epoch": "2025-12-04T04:41:47.704128",
        "meta_mean_motion": 14.21437783,
        "meta_eccentricity": 0.0002387,
        "meta_inclination": 98.5771,
        "meta_ra_of_asc_node": 300.3042,
        "meta_arg_of_pericenter": 73.4083,
        "meta_mean_anomaly": 286.7357,
        "meta_ephemeris_type": 0,
        "meta_classification_type": "U",
        "meta_norad_cat_id": 64876,
        "meta_element_set_no": 999,
        "meta_rev_at_epoch": 1870,
        "meta_bstar": 0.00010017,
        "meta_mean_motion_dot": 1.76e-06,
        "meta_mean_motion_ddot": 0,
        "tle_line1": "1 64876U 25155A   25338.19569102  .00000176  00000+0  10017-3 0  9998",
        "tle_line2": "2 64876  98.5771 300.3042 0002387  73.4083 286.7357 14.21437783 18701"
      },
      "geometry": {
        "type": "Point",
        "coordinates": [
          108.76497325481381,
          -53.546252865839314
        ]
      }
    },
    {
      "type": "Feature",
      "properties": {
        "norad_id": 64877,
        "name": "IONOSFERA-M 4",
        "group": "resource",
        "lat": 54.00412031986948,
        "lon": -71.51735316091589,
        "alt_km": 814.1577889606306,
        "timestamp": "2025-12-04T10:51:49.764059+00:00",
        "meta_object_name": "IONOSFERA-M 4",
        "meta_object_id": "2025-155B",
        "meta_epoch": "2025-12-04T03:50:56.164992",
        "meta_mean_motion": 14.21438822,
        "meta_eccentricity": 0.000174,
        "meta_inclination": 98.5769,
        "meta_ra_of_asc_node": 300.1895,
        "meta_arg_of_pericenter": 72.2579,
        "meta_mean_anomaly": 287.8788,
        "meta_ephemeris_type": 0,
        "meta_classification_type": "U",
        "meta_norad_cat_id": 64877,
        "meta_element_set_no": 999,
        "meta_rev_at_epoch": 1869,
        "meta_bstar": 0.00010198,
        "meta_mean_motion_dot": 1.8e-06,
        "meta_mean_motion_ddot": 0,
        "tle_line1": "1 64877U 25155B   25338.16037228  .00000180  00000+0  10198-3 0  9990",
        "tle_line2": "2 64877  98.5769 300.1895 0001740  72.2579 287.8788 14.21438822 18695"
      },
      "geometry": {
        "type": "Point",
        "coordinates": [
          -71.51735316091589,
          54.00412031986948
        ]
      }
    },
    {
      "type": "Feature",
      "properties": {
        "norad_id": 64899,
        "name": "MICROCARB",
        "group": "resource",
        "lat": 37.319567450918576,
        "lon": -119.91204585600336,
        "alt_km": 641.6338476292485,
        "timestamp": "2025-12-04T10:51:49.764069+00:00",
        "meta_object_name": "MICROCARB",
        "meta_object_id": "2025-156A",
        "meta_epoch": "2025-12-04T03:41:39.723072",
        "meta_mean_motion": 14.72035525,
        "meta_eccentricity": 0.0016564,
        "meta_inclination": 98.0034,
        "meta_ra_of_asc_node": 53.6368,
        "meta_arg_of_pericenter": 171.4061,
        "meta_mean_anomaly": 188.7433,
        "meta_ephemeris_type": 0,
        "meta_classification_type": "U",
        "meta_norad_cat_id": 64899,
        "meta_element_set_no": 999,
        "meta_rev_at_epoch": 1927,
        "meta_bstar": 0.00024361,
        "meta_mean_motion_dot": 1.484e-05,
        "meta_mean_motion_ddot": 0,
        "tle_line1": "1 64899U 25156A   25338.15393198  .00001484  00000+0  24361-3 0  9990",
        "tle_line2": "2 64899  98.0034  53.6368 0016564 171.4061 188.7433 14.72035525 19272"
      },
      "geometry": {
        "type": "Point",
        "coordinates": [
          -119.91204585600336,
          37.319567450918576
        ]
      }
    },
    {
      "type": "Feature",
      "properties": {
        "norad_id": 64900,
        "name": "CO3D 3",
        "group": "resource",
        "lat": -9.822025880841215,
        "lon": -126.35671749042326,
        "alt_km": 508.9439280901561,
        "timestamp": "2025-12-04T10:51:49.764079+00:00",
        "meta_object_name": "CO3D 3",
        "meta_object_id": "2025-156B",
        "meta_epoch": "2025-12-02T23:16:40.108224",
        "meta_mean_motion": 15.2021179,
        "meta_eccentricity": 0.00013753,
        "meta_inclination": 97.4352,
        "meta_ra_of_asc_node": 53.4771,
        "meta_arg_of_pericenter": 132.9697,
        "meta_mean_anomaly": 227.1654,
        "meta_ephemeris_type": 0,
        "meta_classification_type": "U",
        "meta_norad_cat_id": 64900,
        "meta_element_set_no": 999,
        "meta_rev_at_epoch": 1972,
        "meta_bstar": 0.00042667501,
        "meta_mean_motion_dot": 9.183e-05,
        "meta_mean_motion_ddot": 0,
        "tle_line1": "1 64900U 25156B   25336.96990866  .00009183  00000+0  42668-3 0  9999",
        "tle_line2": "2 64900  97.4352  53.4771 0001375 132.9697 227.1654 15.20211790 19725"
      },
      "geometry": {
        "type": "Point",
        "coordinates": [
          -126.35671749042326,
          -9.822025880841215
        ]
      }
    },
    {
      "type": "Feature",
      "properties": {
        "norad_id": 64901,
        "name": "CO3D 4",
        "group": "resource",
        "lat": -8.853723141632921,
        "lon": -126.22632366003197,
        "alt_km": 508.7585236909508,
        "timestamp": "2025-12-04T10:51:49.764090+00:00",
        "meta_object_name": "CO3D 4",
        "meta_object_id": "2025-156C",
        "meta_epoch": "2025-12-01T18:50:45.474720",
        "meta_mean_motion": 15.20204195,
        "meta_eccentricity": 0.00012108,
        "meta_inclination": 97.4354,
        "meta_ra_of_asc_node": 52.3098,
        "meta_arg_of_pericenter": 238.3057,
        "meta_mean_anomaly": 121.806,
        "meta_ephemeris_type": 0,
        "meta_classification_type": "U",
        "meta_norad_cat_id": 64901,
        "meta_element_set_no": 999,
        "meta_rev_at_epoch": 1954,
        "meta_bstar": -1.4420799e-05,
        "meta_mean_motion_dot": -3.8e-06,
        "meta_mean_motion_ddot": 0,
        "tle_line1": "1 64901U 25156C   25335.78524855 -.00000380  00000+0 -14421-4 0  9999",
        "tle_line2": "2 64901  97.4354  52.3098 0001210 238.3057 121.8060 15.20204195 19549"
      },
      "geometry": {
        "type": "Point",
        "coordinates": [
          -126.22632366003197,
          -8.853723141632921
        ]
      }
    }
  ]
}